{
  "links" : {
    "next" : "https://api.nasa.gov/neo/rest/v1/feed?start_date=2004-01-23&end_date=2004-01-23&detailed=true&api_key=t0TVs3DtDT2H8Oy2Zy8m2eVrNsAVKAexjcZXUckd",
    "prev" : "https://api.nasa.gov/neo/rest/v1/feed?start_date=2004-01-21&end_date=2004-01-21&detailed=true&api_key=t0TVs3DtDT2H8Oy2Zy8m2eVrNsAVKAexjcZXUckd",
    "self" : "https://api.nasa.gov/neo/rest/v1/feed?start_date=2004-01-22&end_date=2004-01-22&detailed=true&api_key=t0TVs3DtDT2H8Oy2Zy8m2eVrNsAVKAexjcZXUckd"
  },
  "element_count" : 6,
  "near_earth_objects" : {
    "2004-01-22" : [ {
      "links" : {
        "self" : "https://api.nasa.gov/neo/rest/v1/neo/2217013?api_key=t0TVs3DtDT2H8Oy2Zy8m2eVrNsAVKAexjcZXUckd"
      },
      "neo_reference_id" : "2217013",
      "name" : "217013 (2001 AA50)",
      "nasa_jpl_url" : "http://ssd.jpl.nasa.gov/sbdb.cgi?sstr=2217013",
      "absolute_magnitude_h" : 18.7,
      "estimated_diameter" : {
        "kilometers" : {
          "estimated_diameter_min" : 0.4836764882,
          "estimated_diameter_max" : 1.0815335068
        },
        "meters" : {
          "estimated_diameter_min" : 483.6764882185,
          "estimated_diameter_max" : 1081.533506775
        },
        "miles" : {
          "estimated_diameter_min" : 0.3005425432,
          "estimated_diameter_max" : 0.6720335566
        },
        "feet" : {
          "estimated_diameter_min" : 1586.8651696069,
          "estimated_diameter_max" : 3548.3383903678
        }
      },
      "is_potentially_hazardous_asteroid" : false,
      "close_approach_data" : [ {
        "close_approach_date" : "2004-01-22",
        "epoch_date_close_approach" : 1074758400000,
        "relative_velocity" : {
          "kilometers_per_second" : "21.1716589242",
          "kilometers_per_hour" : "76217.9721272985",
          "miles_per_hour" : "47358.8838476539"
        },
        "miss_distance" : {
          "astronomical" : "0.4282690975",
          "lunar" : "166.5966796875",
          "kilometers" : "64068144",
          "miles" : "39810100"
        },
        "orbiting_body" : "Earth"
      } ],
      "orbital_data" : {
        "orbit_id" : "87",
        "orbit_determination_date" : "2017-04-06 09:25:19",
        "orbit_uncertainty" : "0",
        "minimum_orbit_intersection" : ".131875",
        "jupiter_tisserand_invariant" : "4.652",
        "epoch_osculation" : "2458000.5",
        "eccentricity" : ".1979580957915888",
        "semi_major_axis" : "1.32072380547989",
        "inclination" : "43.87858409562145",
        "ascending_node_longitude" : "306.2546641017849",
        "orbital_period" : "554.3913374936111",
        "perihelion_distance" : "1.05927583588047",
        "perihelion_argument" : "58.62233417177695",
        "aphelion_distance" : "1.58217177507931",
        "perihelion_time" : "2457864.418091220195",
        "mean_anomaly" : "88.36625655481927",
        "mean_motion" : ".6493607956205641",
        "equinox" : "J2000"
      }
    }, {
      "links" : {
        "self" : "https://api.nasa.gov/neo/rest/v1/neo/2259221?api_key=t0TVs3DtDT2H8Oy2Zy8m2eVrNsAVKAexjcZXUckd"
      },
      "neo_reference_id" : "2259221",
      "name" : "259221 (2003 BA21)",
      "nasa_jpl_url" : "http://ssd.jpl.nasa.gov/sbdb.cgi?sstr=2259221",
      "absolute_magnitude_h" : 19.2,
      "estimated_diameter" : {
        "kilometers" : {
          "estimated_diameter_min" : 0.3841978911,
          "estimated_diameter_max" : 0.8590926012
        },
        "meters" : {
          "estimated_diameter_min" : 384.1978910643,
          "estimated_diameter_max" : 859.0926012318
        },
        "miles" : {
          "estimated_diameter_min" : 0.2387294278,
          "estimated_diameter_max" : 0.5338152287
        },
        "feet" : {
          "estimated_diameter_min" : 1260.4918089193,
          "estimated_diameter_max" : 2818.5453698252
        }
      },
      "is_potentially_hazardous_asteroid" : false,
      "close_approach_data" : [ {
        "close_approach_date" : "2004-01-22",
        "epoch_date_close_approach" : 1074758400000,
        "relative_velocity" : {
          "kilometers_per_second" : "38.2699085032",
          "kilometers_per_hour" : "137771.6706114383",
          "miles_per_hour" : "85605.9583307573"
        },
        "miss_distance" : {
          "astronomical" : "0.2903252723",
          "lunar" : "112.9365386963",
          "kilometers" : "43432044",
          "miles" : "26987422"
        },
        "orbiting_body" : "Earth"
      } ],
      "orbital_data" : {
        "orbit_id" : "40",
        "orbit_determination_date" : "2017-04-06 09:24:43",
        "orbit_uncertainty" : "0",
        "minimum_orbit_intersection" : ".13164",
        "jupiter_tisserand_invariant" : "5.195",
        "epoch_osculation" : "2458000.5",
        "eccentricity" : ".8331011938977626",
        "semi_major_axis" : "1.100261590809678",
        "inclination" : "23.70617095026805",
        "ascending_node_longitude" : "308.8793229286659",
        "orbital_period" : "421.5434595804446",
        "perihelion_distance" : ".1836323459062838",
        "perihelion_argument" : "18.13621485188891",
        "aphelion_distance" : "2.016890835713073",
        "perihelion_time" : "2458049.287226262507",
        "mean_anomaly" : "318.3354905518329",
        "mean_motion" : ".8540044728918393",
        "equinox" : "J2000"
      }
    }, {
      "links" : {
        "self" : "https://api.nasa.gov/neo/rest/v1/neo/3174184?api_key=t0TVs3DtDT2H8Oy2Zy8m2eVrNsAVKAexjcZXUckd"
      },
      "neo_reference_id" : "3174184",
      "name" : "(2004 BG41)",
      "nasa_jpl_url" : "http://ssd.jpl.nasa.gov/sbdb.cgi?sstr=3174184",
      "absolute_magnitude_h" : 24.4,
      "estimated_diameter" : {
        "kilometers" : {
          "estimated_diameter_min" : 0.0350392641,
          "estimated_diameter_max" : 0.0783501764
        },
        "meters" : {
          "estimated_diameter_min" : 35.0392641108,
          "estimated_diameter_max" : 78.3501764334
        },
        "miles" : {
          "estimated_diameter_min" : 0.0217723826,
          "estimated_diameter_max" : 0.0486845275
        },
        "feet" : {
          "estimated_diameter_min" : 114.9582192654,
          "estimated_diameter_max" : 257.0543928497
        }
      },
      "is_potentially_hazardous_asteroid" : false,
      "close_approach_data" : [ {
        "close_approach_date" : "2004-01-22",
        "epoch_date_close_approach" : 1074758400000,
        "relative_velocity" : {
          "kilometers_per_second" : "9.8034315054",
          "kilometers_per_hour" : "35292.3534195604",
          "miles_per_hour" : "21929.2959345041"
        },
        "miss_distance" : {
          "astronomical" : "0.047156438",
          "lunar" : "18.3438549042",
          "kilometers" : "7054503",
          "miles" : "4383465"
        },
        "orbiting_body" : "Earth"
      } ],
      "orbital_data" : {
        "orbit_id" : "15",
        "orbit_determination_date" : "2017-04-06 09:13:15",
        "orbit_uncertainty" : "0",
        "minimum_orbit_intersection" : ".0135172",
        "jupiter_tisserand_invariant" : "3.173",
        "epoch_osculation" : "2458000.5",
        "eccentricity" : ".6099499391599853",
        "semi_major_axis" : "2.509106338665483",
        "inclination" : "2.978222520122809",
        "ascending_node_longitude" : "301.1907079389383",
        "orbital_period" : "1451.700506112319",
        "perihelion_distance" : ".9786770800505382",
        "perihelion_argument" : "153.4537546135031",
        "aphelion_distance" : "4.039535597280428",
        "perihelion_time" : "2457375.470143810026",
        "mean_anomaly" : "154.99805041122",
        "mean_motion" : ".2479850344366737",
        "equinox" : "J2000"
      }
    } ]
  }
}